[{"OBJECT_NAME":"STARLINK-5542","OBJECT_ID":"2023-088AD","EPOCH":"2026-03-09T22:00:01.999584","MEAN_MOTION":15.0978121,"ECCENTRICITY":0.00024457,"INCLINATION":43.0008,"RA_OF_ASC_NODE":93.351,"ARG_OF_PERICENTER":264.4889,"MEAN_ANOMALY":53.9272,"EPHEMERIS_TYPE":0,"CLASSIFICATION_TYPE":"U","NORAD_CAT_ID":57075,"ELEMENT_SET_NO":999,"REV_AT_EPOCH":577,"BSTAR":0.0054518783,"MEAN_MOTION_DOT":0.00090511,"MEAN_MOTION_DDOT":0},{"OBJECT_NAME":"ICEYE-X38","OBJECT_ID":"2024-043C","EPOCH":"2026-03-09T22:31:51.164832","MEAN_MOTION":15.11764469,"ECCENTRICITY":0.00034523,"INCLINATION":97.8238,"RA_OF_ASC_NODE":210.1187,"ARG_OF_PERICENTER":76.8106,"MEAN_ANOMALY":283.3508,"EPHEMERIS_TYPE":0,"CLASSIFICATION_TYPE":"U","NORAD_CAT_ID":59100,"ELEMENT_SET_NO":999,"REV_AT_EPOCH":9667,"BSTAR":0.00052269951,"MEAN_MOTION_DOT":8.853e-5,"MEAN_MOTION_DDOT":0}]
